JILIN-01 GAOFEN 3C      
1 46455U 20065B   23111.88420279  .00012823  00000+0  67588-3 0  9997
2 46455  97.3963 160.7222 0010592 269.3786 262.5131 15.15664059143270
JILIN-01 GAOFEN 3D      
1 46456U 20065C   23111.86258576  .00013142  00000+0  69209-3 0  9992
2 46456  97.4060 161.8962 0009665 269.2569 205.5282 15.15699546143273
JILIN-01 GAOFEN 3E      
1 46457U 20065D   23111.88239910  .00012052  00000+0  63795-3 0  9999
2 46457  97.4019 161.3520 0010004 273.7260 199.5732 15.15534432143274
JILIN-01 GAOFEN 3F      
1 46458U 20065E   23111.53487192  .00012436  00000+0  65801-3 0  9995
2 46458  97.3951 160.2017 0010463 263.0382 233.1910 15.15537034143223
JILIN-01 GAOFEN 3G      
1 46459U 20065F   23111.85547306  .00012216  00000+0  64539-3 0  9998
2 46459  97.4073 162.0855 0011487 267.4176 207.9882 15.15584921143275
JILIN-01 GAOFEN 3H      
1 46460U 20065G   23111.85445427  .00012168  00000+0  64455-3 0  9994
2 46460  97.3965 160.6955 0010648 263.7288 211.4736 15.15500120143279
JILIN-01 GAOFEN 3I      
1 46461U 20065H   23111.84230257  .00011878  00000+0  62841-3 0  9991
2 46461  97.4052 161.8758 0011203 255.6948 214.9082 15.15547503143271
JILIN-01 GAOFEN 3J      
1 46462U 20065J   23111.83393395  .00011970  00000+0  63295-3 0  9991
2 46462  97.4009 161.2916 0010329 261.7018 209.2799 15.15571464143273
HAIYANG-2C              
1 46469U 20066A   23111.49796322  .00000026  00000+0  97762-4 0  9995
2 46469  65.9973 205.2306 0006775 298.1759  61.8609 13.83378228130340
HJ-2A                   
1 46478U 20067A   23109.12907363  .00007054  00000+0  10203-2 0  9993
2 46478  97.9673 192.3910 0001929  93.8051 265.9318 14.76450201137818
HJ-2B                   
1 46479U 20067B   23111.80709248  .00001796  00000+0  26481-3 0  9997
2 46479  97.9692 195.4078 0002009  81.9913 278.1528 14.76546930138213
GONETS-M 17             
1 46486U 20068A   23111.40683295  .00000024  00000+0  10000-3 0  9998
2 46486  82.5015 344.6271 0024117  30.4303 329.8173 12.42888443116146
GONETS-M 18             
1 46487U 20068B   23111.37309673  .00000024  00000+0  10000-3 0  9990
2 46487  82.4967 344.2056 0021155  28.3501 331.8729 12.42958095116134
GONETS-M 19             
1 46488U 20068C   23111.50572379  .00000024  00000+0  10000-3 0  9991
2 46488  82.4996 344.3278 0015605  42.2212 318.0071 12.42979490116163
MEZNSAT                 
1 46489U 20068D   23111.09221428  .00013849  00000+0  82224-3 0  9998
2 46489  97.7634  60.1487 0014605 315.3729  44.6324 15.11351333140601
YARILO 1                
1 46490U 20068E   23111.58961651  .00018670  00000+0  10869-2 0  9995
2 46490  97.7638  60.8857 0015427 315.1644  44.8417 15.11982093140699
YARILO 2                
1 46491U 20068F   23111.08232157  .00019827  00000+0  11589-2 0  9998
2 46491  97.7580  60.1999 0015217 322.8759  37.1396 15.11825545140605
LACUNASAT-3             
1 46492U 20068G   23110.85123326  .00017309  00000+0  99784-3 0  9997
2 46492  97.7638  60.1555 0013857 318.6371  41.3808 15.12371261140561
DEKART                  
1 46493U 20068H   23111.56181291  .00009591  00000+0  62579-3 0  9998
2 46493  97.7634  59.4897 0016098 322.6233  37.3867 15.07979911140571
NORBI                   
1 46494U 20068J   23111.58459657  .00012214  00000+0  78250-3 0  9994
2 46494  97.7622  59.6044 0015633 323.1298  36.8863 15.08591962140584
SALSAT                  
1 46495U 20068K   23111.10251060  .00006545  00000+0  43817-3 0  9992
2 46495  97.7665  58.5421 0014244 320.3113  39.7071 15.07182689140473
ICEYE-X7                
1 46496U 20068L   23111.54999862  .00010420  00000+0  81336-3 0  9995
2 46496  97.6465  48.9884 0012688 325.9178  34.1179 15.01258540140280
ICEYE-X6                
1 46497U 20068M   23110.85625077  .00008590  00000+0  68031-3 0  9995
2 46497  97.8158  56.1925 0007627   7.4203 352.7131 15.00811187140173
KEPLER-5 (AMIDALA)      
1 46498U 20068N   23111.26948399  .00023915  00000+0  13785-2 0  9990
2 46498  97.7514  58.7948 0011097 335.8388  24.2319 15.12332812140535
KEPLER-4 (ANTILLES)     
1 46499U 20068P   23111.29431744  .00023535  00000+0  13716-2 0  9997
2 46499  97.7500  58.6979 0011159 336.0206  24.0493 15.11938058140483
LEMUR-2-SLICERS         
1 46500U 20068Q   23111.57662437  .00031593  00000+0  17096-2 0  9994
2 46500  97.7506  59.4774 0008422 339.6381  20.4801 15.14553961140567
LEMUR-2-DAYWZAGOODDAY   
1 46501U 20068R   23111.27224056  .00029374  00000+0  15952-2 0  9996
2 46501  97.7531  59.4946 0011569 342.9938  17.0910 15.14417911140521
LEMUR-2-SUSURRUS        
1 46502U 20068S   23111.57733203  .00030425  00000+0  16450-2 0  9992
2 46502  97.7560  59.4844 0011410 337.5801  22.4521 15.14567209140563
LEMUR-2-NICHOL          
1 46503U 20068T   23111.57512666  .00028064  00000+0  15555-2 0  9992
2 46503  97.7498  59.3469 0009692 343.7128  16.3684 15.13716729140559
NETSAT-4                
1 46504U 20068U   23111.28455889  .00010785  00000+0  72537-3 0  9999
2 46504  97.7555  56.6036 0012340  12.1978 347.9519 15.06865697140335
NETSAT-3                
1 46505U 20068V   23111.57771318  .00011495  00000+0  77555-3 0  9994
2 46505  97.7535  56.7483 0011595  17.6968 342.4656 15.06741594140387
NETSAT-1                
1 46506U 20068W   23111.07963021  .00008779  00000+0  59748-3 0  9999
2 46506  97.7548  56.1437 0010246  30.1987 329.9824 15.06507366140304
NETSAT-2                
1 46507U 20068X   23111.27987571  .00010426  00000+0  70326-3 0  9995
2 46507  97.7550  56.3589 0009856  35.3636 324.8235 15.06789474140280
FLOCK 4V-16             
1 46527U 20061BD  23111.47424819  .00027208  00000+0  75322-3 0  9990
2 46527  97.3567 183.7054 0006320 124.7037 235.4803 15.36939611141854
FLOCK 4V-15             
1 46528U 20061BE  23111.15997660  .00049379  00000+0  13564-2 0  9997
2 46528  97.3544 183.7592 0004107 141.6708 218.4829 15.37062555142193
FLOCK 4V-17             
1 46529U 20061BF  23111.18690642  .00052739  00000+0  14543-2 0  9993
2 46529  97.3518 183.3642 0003573 132.0391 228.1158 15.36927351141392
STARLINK-1644           
1 46532U 20070A   23111.49299855  .00030132  00000+0  20336-2 0  9992
2 46532  53.0542 224.5974 0001203  94.3080 265.8047 15.06391883140768
STARLINK-1648           
1 46533U 20070B   23111.57039558  .00030890  00000+0  20830-2 0  9994
2 46533  53.0535 224.2551 0001370  62.4755 297.6373 15.06410970140774
STARLINK-1659           
1 46534U 20070C   23111.81727899  .00036789  00000+0  24717-2 0  9995
2 46534  53.0538 223.1461 0001467  73.5282 286.5868 15.06462038140836
STARLINK-1663           
1 46535U 20070D   23111.60722775  .00031254  00000+0  21057-2 0  9997
2 46535  53.0545 224.0886 0001203  75.4017 284.7105 15.06437101140793
STARLINK-1672           
1 46537U 20070F   23111.56670897  .00029082  00000+0  19626-2 0  9996
2 46537  53.0534 224.2665 0001473  87.1726 272.9432 15.06412599140770
STARLINK-1678           
1 46538U 20070G   23111.47818368  .00030097  00000+0  20356-2 0  9994
2 46538  53.0545 224.6681 0001624  78.2755 281.8416 15.06312390140753
STARLINK-1687           
1 46541U 20070K   23111.25893491  .00023949  00000+0  16218-2 0  9994
2 46541  53.0547 205.6528 0001071  97.4888 262.6222 15.06386552141006
STARLINK-1692           
1 46542U 20070L   23111.59250576  .00025270  00000+0  17089-2 0  9999
2 46542  53.0531 224.1512 0001196  31.6666 328.4395 15.06408294140774
STARLINK-1693           
1 46543U 20070M   23111.57768792  .00041848  00000+0  28044-2 0  9994
2 46543  53.0529 224.2195 0001408  83.0600 277.0549 15.06496692140774
STARLINK-1694           
1 46544U 20070N   23111.57361776  .00026226  00000+0  17724-2 0  9992
2 46544  53.0527 209.2392 0001136  86.2565 273.8554 15.06413085140986
STARLINK-1696           
1 46545U 20070P   23111.41558751  .00026097  00000+0  17653-2 0  9994
2 46545  53.0553 224.9498 0001188  84.7692 275.3432 15.06381443140746
STARLINK-1697           
1 46546U 20070Q   23111.59989391  .00029660  00000+0  20034-2 0  9998
2 46546  53.0538 224.1163 0001380  78.2794 281.8349 15.06369132140779
STARLINK-1698           
1 46547U 20070R   23111.42938013  .00021611  00000+0  14653-2 0  9994
2 46547  53.0528 224.8717 0000881  89.3198 270.7892 15.06398447140756
STARLINK-1699           
1 46548U 20070S   23111.44138272  .00028903  00000+0  19501-2 0  9994
2 46548  53.0536 224.8297 0001456  81.2394 278.8760 15.06422668140753
STARLINK-1700           
1 46549U 20070T   23111.60356950  .00034280  00000+0  23090-2 0  9991
2 46549  53.0535 224.1005 0001390  89.6410 270.4738 15.06400884140772
STARLINK-1701           
1 46550U 20070U   23111.05802586  .00031199  00000+0  21033-2 0  9994
2 46550  53.0540 226.5536 0001554  80.8577 279.2588 15.06414839140690
STARLINK-1664           
1 46553U 20070X   23111.24511677  .00023606  00000+0  15984-2 0  9998
2 46553  53.0525 195.7273 0001051  56.0135 304.0954 15.06398910141144
STARLINK-1671           
1 46554U 20070Y   23111.76159832  .00032586  00000+0  21945-2 0  9998
2 46554  53.0530 208.3969 0001381  56.9835 303.1286 15.06432621141029
STARLINK-1676           
1 46556U 20070AA  23111.42295738  .00028778  00000+0  19427-2 0  9999
2 46556  53.0546 224.9179 0001019  86.9236 273.1870 15.06406085140750
STARLINK-1679           
1 46557U 20070AB  23111.53305985  .00033624  00000+0  22634-2 0  9998
2 46557  53.0524 209.4179 0001371 105.0162 255.0979 15.06433228140980
STARLINK-1680           
1 46558U 20070AC  23111.54044886  .00030920  00000+0  20844-2 0  9997
2 46558  53.0534 209.3881 0001662  82.0792 278.0386 15.06420343140955
STARLINK-1681           
1 46559U 20070AD  23111.52796139  .00020164  00000+0  13680-2 0  9990
2 46559  53.0552 194.4346 0000994 119.9865 240.1223 15.06419403141185
STARLINK-1706           
1 46560U 20070AE  23111.91667824  .00182778  00000+0  11661-2 0  9990
2 46560  53.0424 167.4566 0007447 353.7277  27.7272 15.75300640141613
